{"type":"FeatureCollection","crs":{"type":"name","properties":{"name":"EPSG:4326"}},"features":[{"type":"Feature","id":53,"geometry":{"type":"Polygon","coordinates":[[[-118.287851194912,34.0618188547564],[-118.287830195485,34.0597928545133],[-118.289097195189,34.0597858543848],[-118.289077194701,34.0524098531316],[-118.290907195047,34.0524088529667],[-118.292436195799,34.0526648533377],[-118.312878199059,34.0526308517149],[-118.313306198477,34.0528248524823],[-118.31330619843,34.0526148523819],[-118.316727199277,34.0525088515974],[-118.318623199722,34.0530598522933],[-118.322958006478,34.054682410409],[-118.322967200412,34.0546858522128],[-118.319095200581,34.0617308526899],[-118.314204199574,34.0616998532581],[-118.314039199804,34.0625448530531],[-118.314217200793,34.0711378541915],[-118.31398720034,34.0715328538309],[-118.313446200191,34.0717878546025],[-118.313447200118,34.0727248544465],[-118.313588200637,34.0729098543923],[-118.313601198593,34.0762352031014],[-118.313601201037,34.0762358549032],[-118.309160202115,34.0762524385455],[-118.286821196157,34.0763358565636],[-118.28681119586,34.0689868550622],[-118.286797195427,34.0677208556489],[-118.287094195342,34.0677188554767],[-118.287035195384,34.0618238547913],[-118.287851194912,34.0618188547564]]]},"properties":{"OBJECTID":53,"name":"Koreatown"}}]}